NORAD_CAT_ID,OBJECT_NAME,OBJECT_TYPE,EPOCH,MEAN_MOTION,ECCENTRICITY,INCLINATION,RA_OF_ASC_NODE,ARG_OF_PERICENTER,MEAN_ANOMALY,BSTAR,MEAN_MOTION_DOT,MEAN_MOTION_DDOT,TLE_LINE0,TLE_LINE1,TLE_LINE2,SEMIMAJOR_AXIS,PERIOD,APOGEE,PERIGEE,DECAYED
51809.0,STARLINK-3607,PAYLOAD,2024-07-31 20:54:08,15.0883352,0.0001353,53.2162,88.9245,93.661,266.4537,-2.4682e-05,-6.81e-06,0.0,0 STARLINK-3607,1 51809U 22017AT  24213.87093483 -.00000681  00000-0 -24682-4 0  9992,2 51809  53.2162  88.9245 0001353  93.6610 266.4537 15.08833520135622,6917.9,95.438,540.701,538.829,0.0
51809.0,STARLINK-3607,PAYLOAD,2024-08-01 22:20:20,15.08827264,0.0001099,53.2146,84.1692,94.4154,265.6964,2.7553e-05,1.51e-06,0.0,0 STARLINK-3607,1 51809U 22017AT  24214.93079253  .00000151  00000-0  27553-4 0  9999,2 51809  53.2146  84.1692 0001099  94.4154 265.6964 15.08827264135787,6917.919,95.438,540.545,539.024,0.0
51809.0,STARLINK-3607,PAYLOAD,2024-08-02 14:14:10,15.08833268,0.0001509,53.2177,81.1971,109.1979,250.9176,0.00019976,2.892e-05,0.0,0 STARLINK-3607,1 51809U 22017AT  24215.59318117  .00002892  00000-0  19976-3 0  9990,2 51809  53.2177  81.1971 0001509 109.1979 250.9176 15.08833268135887,6917.901,95.438,540.81,538.722,0.0
51809.0,STARLINK-3607,PAYLOAD,2024-08-02 22:11:06,15.08833168,0.0001669,53.2183,79.7104,116.8509,243.2654,0.00018252,2.617e-05,0.0,0 STARLINK-3607,1 51809U 22017AT  24215.92438288  .00002617  00000-0  18252-3 0  9990,2 51809  53.2183  79.7104 0001669 116.8509 243.2654 15.08833168135937,6917.901,95.438,540.921,538.612,0.0
51809.0,STARLINK-3607,PAYLOAD,2024-08-03 07:43:24,15.08847108,0.000117,53.2167,77.9177,77.6163,282.496,0.00031842,4.784e-05,0.0,0 STARLINK-3607,1 51809U 22017AT  24216.32181003  .00004784  00000-0  31842-3 0  9992,2 51809  53.2167  77.9177 0001170  77.6163 282.4960 15.08847108135996,6917.859,95.437,540.533,538.914,0.0
51809.0,STARLINK-3607,PAYLOAD,2024-08-03 20:26:30,15.08833789,0.0001696,53.2176,75.544,90.2513,269.8673,0.00016374,2.318e-05,0.0,0 STARLINK-3607,1 51809U 22017AT  24216.85174609  .00002318  00000-0  16374-3 0  9998,2 51809  53.2176  75.5440 0001696  90.2513 269.8673 15.08833789136076,6917.899,95.438,540.938,538.591,0.0
51809.0,STARLINK-3607,PAYLOAD,2024-08-03 22:01:53,15.08836424,0.0001275,53.2167,75.245,79.0707,281.0429,0.00017114,2.437e-05,0.0,0 STARLINK-3607,1 51809U 22017AT  24216.91798399  .00002437  00000-0  17114-3 0  9998,2 51809  53.2167  75.2450 0001275  79.0707 281.0429 15.08836424136082,6917.891,95.438,540.638,538.874,0.0
51809.0,STARLINK-3607,PAYLOAD,2024-08-04 07:34:11,15.08855144,0.0001446,53.2179,73.4646,95.7139,264.4018,0.0001055,1.392e-05,0.0,0 STARLINK-3607,1 51809U 22017AT  24217.31541246  .00001392  00000-0  10550-3 0  9996,2 51809  53.2179  73.4646 0001446  95.7139 264.4018 15.08855144136142,6917.834,95.437,540.699,538.699,0.0
51809.0,STARLINK-3607,PAYLOAD,2024-08-04 20:17:17,15.08842516,0.0001182,53.2158,71.0848,95.6477,264.465,2.0149e-05,3.3e-07,0.0,0 STARLINK-3607,1 51809U 22017AT  24217.84534149  .00000033  00000-0  20149-4 0  9995,2 51809  53.2158  71.0848 0001182  95.6477 264.4650 15.08842516136228,6917.873,95.437,540.555,538.92,0.0
51809.0,STARLINK-3607,PAYLOAD,2024-08-04 21:52:39,15.08859122,0.000109,53.2176,70.7833,97.366,262.7456,6.4026e-05,7.32e-06,0.0,0 STARLINK-3607,1 51809U 22017AT  24217.91156876  .00000732  00000-0  64026-4 0  9998,2 51809  53.2176  70.7833 0001090  97.3660 262.7456 15.08859122136236,6917.822,95.436,540.441,538.933,0.0
51809.0,STARLINK-3607,PAYLOAD,2024-08-04 23:28:02,15.08860041,0.0001046,53.2171,70.4851,94.2328,265.8784,5.4293e-05,5.77e-06,0.0,0 STARLINK-3607,1 51809U 22017AT  24217.97780774  .00000577  00000-0  54293-4 0  9996,2 51809  53.2171  70.4851 0001046  94.2328 265.8784 15.08860041136247,6917.819,95.436,540.408,538.961,0.0
51809.0,STARLINK-3607,PAYLOAD,2024-08-05 21:43:28,15.08830482,0.0001281,53.2162,66.3242,88.7566,271.3573,-0.00012966,-2.35e-05,0.0,0 STARLINK-3607,1 51809U 22017AT  24218.90518946 -.00002350  00000-0 -12966-3 0  9993,2 51809  53.2162  66.3242 0001281  88.7566 271.3573 15.08830482136387,6917.909,95.438,540.661,538.888,0.0
51809.0,STARLINK-3607,PAYLOAD,2024-08-06 13:37:18,15.08835048,0.0001026,53.2165,63.3519,93.0175,267.0935,0.00013059,1.791e-05,0.0,0 STARLINK-3607,1 51809U 22017AT  24219.56757977  .00001791  00000-0  13059-3 0  9995,2 51809  53.2165  63.3519 0001026  93.0175 267.0935 15.08835048136484,6917.896,95.438,540.47,539.051,0.0
51809.0,STARLINK-3607,PAYLOAD,2024-08-06 19:58:51,15.08847572,0.0001315,53.2157,62.1626,88.7952,271.319,0.00012948,1.774e-05,0.0,0 STARLINK-3607,1 51809U 22017AT  24219.83253661  .00001774  00000-0  12948-3 0  9993,2 51809  53.2157  62.1626 0001315  88.7952 271.3190 15.08847572136527,6917.857,95.437,540.632,538.813,0.0
51809.0,STARLINK-3607,PAYLOAD,2024-08-07 19:49:38,15.08847412,0.0001312,53.2159,57.7032,76.836,283.2778,0.00030356,4.548e-05,0.0,0 STARLINK-3607,1 51809U 22017AT  24220.82613921  .00004548  00000-0  30356-3 0  9998,2 51809  53.2159  57.7032 0001312  76.8360 283.2778 15.08847412136671,6917.858,95.437,540.63,538.815,0.0
51809.0,STARLINK-3607,PAYLOAD,2024-08-08 22:51:11,15.08850834,0.0001313,53.2162,52.6447,88.5084,271.6059,0.00010074,1.316e-05,0.0,0 STARLINK-3607,1 51809U 22017AT  24221.95221255  .00001316  00000-0  10074-3 0  9993,2 51809  53.2162  52.6447 0001313  88.5084 271.6059 15.08850834136847,6917.847,95.437,540.621,538.804,0.0
51809.0,STARLINK-3607,PAYLOAD,2024-08-09 19:31:12,15.08841285,0.000122,53.2167,48.7767,67.1385,292.9736,5.9801e-05,6.64e-06,0.0,0 STARLINK-3607,1 51809U 22017AT  24222.81333889  .00000664  00000-0  59801-4 0  9993,2 51809  53.2167  48.7767 0001220  67.1385 292.9736 15.08841285136979,6917.876,95.437,540.585,538.897,0.0
51809.0,STARLINK-3607,PAYLOAD,2024-08-10 11:25:04,15.08838773,0.0001246,53.2172,45.8069,97.5469,262.5665,5.1574e-05,5.33e-06,0.0,0 STARLINK-3607,1 51809U 22017AT  24223.47574125  .00000533  00000-0  51574-4 0  9990,2 51809  53.2172  45.8069 0001246  97.5469 262.5665 15.08838773137070,6917.884,95.438,540.611,538.887,0.0
51809.0,STARLINK-3607,PAYLOAD,2024-08-10 17:46:36,15.0883503,0.0001251,53.2168,44.6162,84.5373,275.5761,8.3327e-06,-1.55e-06,0.0,0 STARLINK-3607,1 51809U 22017AT  24223.74070194 -.00000155  00000-0  83327-5 0  9990,2 51809  53.2168  44.6162 0001251  84.5373 275.5761 15.08835030137111,6917.896,95.438,540.626,538.895,0.0
51809.0,STARLINK-3607,PAYLOAD,2024-08-11 04:54:17,15.08855456,0.0001144,53.216,42.5313,75.084,285.0278,0.0003003,4.497e-05,0.0,0 STARLINK-3607,1 51809U 22017AT  24224.20436803  .00004497  00000-0  30030-3 0  9998,2 51809  53.2160  42.5313 0001144  75.0840 285.0278 15.08855456137183,6917.833,95.437,540.49,538.907,0.0
51809.0,STARLINK-3607,PAYLOAD,2024-08-11 20:48:10,15.08827478,0.0001835,53.2167,39.5607,80.8804,279.2396,-5.5797e-05,-1.176e-05,0.0,0 STARLINK-3607,1 51809U 22017AT  24224.86678986 -.00001176  00000-0 -55797-4 0  9991,2 51809  53.2167  39.5607 0001835  80.8804 279.2396 15.08827478137283,6917.919,95.438,541.053,538.514,0.0
51809.0,STARLINK-3607,PAYLOAD,2024-08-12 04:45:05,15.08854317,0.0002703,53.2168,38.0736,71.9426,288.186,0.00034471,5.204e-05,0.0,0 STARLINK-3607,1 51809U 22017AT  24225.19798033  .00005204  00000-0  34471-3 0  9993,2 51809  53.2168  38.0736 0002703  71.9426 288.1860 15.08854317137330,6917.837,95.437,541.572,537.832,0.0
51809.0,STARLINK-3607,PAYLOAD,2024-08-12 11:06:39,15.0881628,0.0001022,53.217,36.8843,74.445,285.6655,-0.00022242,-3.823e-05,0.0,0 STARLINK-3607,1 51809U 22017AT  24225.46295433 -.00003823  00000-0 -22242-3 0  9999,2 51809  53.2170  36.8843 0001022  74.4450 285.6655 15.08816280137371,6917.953,95.439,540.525,539.111,0.0
51809.0,STARLINK-3607,PAYLOAD,2024-08-12 20:38:57,15.08846099,0.0002528,53.2165,35.105,67.4596,292.6664,0.00027483,4.089e-05,0.0,0 STARLINK-3607,1 51809U 22017AT  24225.86038347  .00004089  00000-0  27483-3 0  9997,2 51809  53.2165  35.1050 0002528  67.4596 292.6664 15.08846099137438,6917.862,95.437,541.476,537.978,0.0
51809.0,STARLINK-3607,PAYLOAD,2024-08-13 10:57:26,15.08796762,0.0001983,53.2124,32.4245,83.9004,276.2214,-0.00065165,-0.00010632,0.0,0 STARLINK-3607,1 51809U 22017AT  24226.45656052 -.00010632  00000-0 -65165-3 0  9994,2 51809  53.2124  32.4245 0001983  83.9004 276.2214 15.08796762137520,6918.013,95.44,541.249,538.506,0.0
51809.0,STARLINK-3607,PAYLOAD,2024-08-13 20:29:45,15.08829265,0.000203,53.2116,30.6448,79.7223,280.3998,-0.00016094,-2.848e-05,0.0,0 STARLINK-3607,1 51809U 22017AT  24226.85399899 -.00002848  00000-0 -16094-3 0  9998,2 51809  53.2116  30.6448 0002030  79.7223 280.3998 15.08829265137582,6917.913,95.438,541.183,538.374,0.0
51809.0,STARLINK-3607,PAYLOAD,2024-08-14 04:26:40,15.08842255,8.16e-05,53.22,29.1547,82.0053,278.1031,0.00020124,2.917e-05,0.0,0 STARLINK-3607,1 51809U 22017AT  24227.18519278  .00002917  00000-0  20124-3 0  9994,2 51809  53.2200  29.1547 0000816  82.0053 278.1031 15.08842255137630,6917.873,95.437,540.303,539.174,0.0
51809.0,STARLINK-3607,PAYLOAD,2024-08-14 17:09:45,15.08847775,0.0001633,53.2172,26.7792,70.0195,290.0973,0.00046714,7.156e-05,0.0,0 STARLINK-3607,1 51809U 22017AT  24227.71511538  .00007156  00000-0  46714-3 0  9997,2 51809  53.2172  26.7792 0001633  70.0195 290.0973 15.08847775137714,6917.857,95.437,540.851,538.592,0.0
51809.0,STARLINK-3607,PAYLOAD,2024-08-15 04:17:27,15.08867784,0.0001557,53.2171,24.6945,81.6584,278.4585,0.00091897,0.00014379,0.0,0 STARLINK-3607,1 51809U 22017AT  24228.17878653  .00014379  00000-0  91897-3 0  9999,2 51809  53.2171  24.6945 0001557  81.6584 278.4585 15.08867784137783,6917.795,95.436,540.738,538.583,0.0
51809.0,STARLINK-3607,PAYLOAD,2024-08-15 18:35:55,15.08841126,0.0001568,53.2164,22.0184,93.729,266.3881,0.00024115,3.552e-05,0.0,0 STARLINK-3607,1 51809U 22017AT  24228.77495290  .00003552  00000-0  24115-3 0  9997,2 51809  53.2164  22.0184 0001568  93.7290 266.3881 15.08841126137879,6917.877,95.437,540.827,538.657,0.0
